CTC1_L_00333016-03
1 10062U 25288KE  26075.70033565  .00000000  00000+0  00000-0 0  9992
2 10062  95.0000 180.0000 0000000   0.0000   0.0000 14.51731151    14
CTC1_L_00333016-04
1 10063U 23576WU  26075.70033565  .00000000  00000+0  00000-0 0  9991
2 10063  95.0000 180.0000 0000000   0.0000  90.0000 14.51731151    14
CTC1_L_00333017-01
1 10064U 24591CF  26075.70033565  .00000000  00000+0  00000-0 0  9990
2 10064  95.0000 192.0000 0000000   0.0000 192.0000 14.51731151    11
CTC1_L_00333017-02
1 10065U 23217WF  26075.70033565  .00000000  00000+0  00000-0 0  9995
2 10065  95.0000 192.0000 0000000   0.0000 282.0000 14.51731151    12
CTC1_L_00333017-03
1 10066U 25820LD  26075.70033565  .00000000  00000+0  00000-0 0  9998
2 10066  95.0000 192.0000 0000000   0.0000  12.0000 14.51731151    14
CTC1_L_00333017-04
1 10067U 25183HA  26075.70033565  .00000000  00000+0  00000-0 0  9991
2 10067  95.0000 192.0000 0000000   0.0000 102.0000 14.51731151    15
CTC1_L_00333018-01
1 10068U 22874OE  26075.70033565  .00000000  00000+0  00000-0 0  9996
2 10068  95.0000 204.0000 0000000   0.0000 204.0000 14.51731151    13
CTC1_L_00333018-02
1 10069U 23667V   26075.70033565  .00000000  00000+0  00000-0 0  9998
2 10069  95.0000 204.0000 0000000   0.0000 294.0000 14.51731151    13
CTC1_L_00333018-03
1 10070U 26761CM  26075.70033565  .00000000  00000+0  00000-0 0  9998
2 10070  95.0000 204.0000 0000000   0.0000  24.0000 14.51731151    16
CTC1_L_00333018-04
1 10071U 23650TV  26075.70033565  .00000000  00000+0  00000-0 0  9993
2 10071  95.0000 204.0000 0000000   0.0000 114.0000 14.51731151    17
CTC1_L_00333019-01
1 10072U 26102CI  26075.70033565  .00000000  00000+0  00000-0 0  9999
2 10072  95.0000 216.0000 0000000   0.0000 216.0000 14.51731151    14
CTC1_L_00333019-02
1 10073U 24060UZ  26075.70033565  .00000000  00000+0  00000-0 0  9991
2 10073  95.0000 216.0000 0000000   0.0000 306.0000 14.51731151    15
CTC1_L_00333019-03
1 10074U 23084IH  26075.70033565  .00000000  00000+0  00000-0 0  9997
2 10074  95.0000 216.0000 0000000   0.0000  36.0000 14.51731151    16
CTC1_L_00333019-04
1 10075U 25503PO  26075.70033565  .00000000  00000+0  00000-0 0  9996
2 10075  95.0000 216.0000 0000000   0.0000 126.0000 14.51731151    17
CTC1_L_00333020-01
1 10076U 22811XO  26075.70033565  .00000000  00000+0  00000-0 0  9996
2 10076  95.0000 228.0000 0000000   0.0000 228.0000 14.51731151    14
CTC1_L_00333020-02
1 10077U 23462VC  26075.70033565  .00000000  00000+0  00000-0 0  9990
2 10077  95.0000 228.0000 0000000   0.0000 318.0000 14.51731151    15
CTC1_L_00333020-03
1 10078U 22868CB  26075.70033565  .00000000  00000+0  00000-0 0  9990
2 10078  95.0000 228.0000 0000000   0.0000  48.0000 14.51731151    16
CTC1_L_00333020-04
1 10079U 26248YC  26075.70033565  .00000000  00000+0  00000-0 0  9997
2 10079  95.0000 228.0000 0000000   0.0000 138.0000 14.51731151    17
CTC1_L_00333021-01
1 10080U 25189NM  26075.70033565  .00000000  00000+0  00000-0 0  9992
2 10080  95.0000 240.0000 0000000   0.0000 240.0000 14.51731151    17
CTC1_L_00333021-02
1 10081U 25015DP  26075.70033565  .00000000  00000+0  00000-0 0  9991
2 10081  95.0000 240.0000 0000000   0.0000 330.0000 14.51731151    18
CTC1_L_00333021-03
1 10082U 24174YC  26075.70033565  .00000000  00000+0  00000-0 0  9997
2 10082  95.0000 240.0000 0000000   0.0000  60.0000 14.51731151    19
CTC1_L_00333021-04
1 10083U 25804XW  26075.70033565  .00000000  00000+0  00000-0 0  9999
2 10083  95.0000 240.0000 0000000   0.0000 150.0000 14.51731151    10
CTC1_L_00333022-01
1 10084U 23458MH  26075.70033565  .00000000  00000+0  00000-0 0  9993
2 10084  95.0000 252.0000 0000000   0.0000 252.0000 14.51731151    17
CTC1_L_00333022-02
1 10085U 22617EG  26075.70033565  .00000000  00000+0  00000-0 0  9990
2 10085  95.0000 252.0000 0000000   0.0000 342.0000 14.51731151    18
CTC1_L_00333022-03
1 10086U 26291JM  26075.70033565  .00000000  00000+0  00000-0 0  9993
2 10086  95.0000 252.0000 0000000   0.0000  72.0000 14.51731151    19
CTC1_L_00333022-04
1 10087U 26341LN  26075.70033565  .00000000  00000+0  00000-0 0  9990
2 10087  95.0000 252.0000 0000000   0.0000 162.0000 14.51731151    10
CTC1_L_00333023-01
1 10088U 25524US  26075.70033565  .00000000  00000+0  00000-0 0  9993
2 10088  95.0000 264.0000 0000000   0.0000 264.0000 14.51731151    17
CTC1_L_00333023-02
1 10089U 22890TZ  26075.70033565  .00000000  00000+0  00000-0 0  9997
2 10089  95.0000 264.0000 0000000   0.0000 354.0000 14.51731151    18
CTC1_L_00333023-03
1 10090U 22138NA  26075.70033565  .00000000  00000+0  00000-0 0  9994
2 10090  95.0000 264.0000 0000000   0.0000  84.0000 14.51731151    10
CTC1_L_00333023-04
1 10091U 22643TN  26075.70033565  .00000000  00000+0  00000-0 0  9996
2 10091  95.0000 264.0000 0000000   0.0000 174.0000 14.51731151    11
CTC1_L_00333024-01
1 10092U 26658ES  26075.70033565  .00000000  00000+0  00000-0 0  9997
2 10092  95.0000 276.0000 0000000   0.0000 276.0000 14.51731151    18
CTC1_L_00333024-02
1 10093U 22808BA  26075.70033565  .00000000  00000+0  00000-0 0  9991
2 10093  95.0000 276.0000 0000000   0.0000   6.0000 14.51731151    10
CTC1_L_00333024-03
1 10094U 24220DW  26075.70033565  .00000000  00000+0  00000-0 0  9992
2 10094  95.0000 276.0000 0000000   0.0000  96.0000 14.51731151    10
CTC1_L_00333024-04
1 10095U 23127GU  26075.70033565  .00000000  00000+0  00000-0 0  9998
2 10095  95.0000 276.0000 0000000   0.0000 186.0000 14.51731151    11
CTC1_L_00333025-01
1 10096U 25092CV  26075.70033565  .00000000  00000+0  00000-0 0  9992
2 10096  95.0000 288.0000 0000000   0.0000 288.0000 14.51731151    18
CTC1_L_00333025-02
1 10097U 22464ST  26075.70033565  .00000000  00000+0  00000-0 0  9993
2 10097  95.0000 288.0000 0000000   0.0000  18.0000 14.51731151    10
CTC1_L_00333025-03
1 10098U 22916QG  26075.70033565  .00000000  00000+0  00000-0 0  9996
2 10098  95.0000 288.0000 0000000   0.0000 108.0000 14.51731151    11
CTC1_L_00333025-04
1 10099U 23852AN  26075.70033565  .00000000  00000+0  00000-0 0  9997
2 10099  95.0000 288.0000 0000000   0.0000 198.0000 14.51731151    11
CTC1_L_00333026-01
1 10100U 25216FF  26075.70033565  .00000000  00000+0  00000-0 0  9996
2 10100  95.0000 300.0000 0000000   0.0000 300.0000 14.51731151    14
CTC1_L_00333026-02
1 10101U 25077ML  26075.70033565  .00000000  00000+0  00000-0 0  9992
2 10101  95.0000 300.0000 0000000   0.0000  30.0000 14.51731151    15
CTC1_L_00333026-03
1 10102U 25427KH  26075.70033565  .00000000  00000+0  00000-0 0  9992
2 10102  95.0000 300.0000 0000000   0.0000 120.0000 14.51731151    16
CTC1_L_00333026-04
1 10103U 25323XS  26075.70033565  .00000000  00000+0  00000-0 0  9998
2 10103  95.0000 300.0000 0000000   0.0000 210.0000 14.51731151    17
CTC1_L_00333027-01
1 10104U 23919IP  26075.70033565  .00000000  00000+0  00000-0 0  9998
2 10104  95.0000 312.0000 0000000   0.0000 312.0000 14.51731151    14
CTC1_L_00333027-02
1 10105U 22568MW  26075.70033565  .00000000  00000+0  00000-0 0  9998
2 10105  95.0000 312.0000 0000000   0.0000  42.0000 14.51731151    15
CTC1_L_00333027-03
1 10106U 22280XA  26075.70033565  .00000000  00000+0  00000-0 0  9990
2 10106  95.0000 312.0000 0000000   0.0000 132.0000 14.51731151    16
CTC1_L_00333027-04
1 10107U 24274BS  26075.70033565  .00000000  00000+0  00000-0 0  9996
2 10107  95.0000 312.0000 0000000   0.0000 222.0000 14.51731151    17
CTC1_L_00333028-01
1 10108U 23781FO  26075.70033565  .00000000  00000+0  00000-0 0  9999
2 10108  95.0000 324.0000 0000000   0.0000 324.0000 14.51731151    14
CTC1_L_00333028-02
1 10109U 22796RL  26075.70033565  .00000000  00000+0  00000-0 0  9995
2 10109  95.0000 324.0000 0000000   0.0000  54.0000 14.51731151    15
CTC1_L_00333028-03
1 10110U 23683BV  26075.70033565  .00000000  00000+0  00000-0 0  9993
2 10110  95.0000 324.0000 0000000   0.0000 144.0000 14.51731151    17
CTC1_L_00333028-04
1 10111U 26635AW  26075.70033565  .00000000  00000+0  00000-0 0  9994
2 10111  95.0000 324.0000 0000000   0.0000 234.0000 14.51731151    18
CTC1_L_00333029-01
1 10112U 22750DS  26075.70033565  .00000000  00000+0  00000-0 0  9999
2 10112  95.0000 336.0000 0000000   0.0000 336.0000 14.51731151    15
CTC1_L_00333029-02
1 10113U 26855GB  26075.70033565  .00000000  00000+0  00000-0 0  9990
2 10113  95.0000 336.0000 0000000   0.0000  66.0000 14.51731151    16
CTC1_L_00333029-03
1 10114U 22094HK  26075.70033565  .00000000  00000+0  00000-0 0  9992
2 10114  95.0000 336.0000 0000000   0.0000 156.0000 14.51731151    17
CTC1_L_00333029-04
1 10115U 25758IX  26075.70033565  .00000000  00000+0  00000-0 0  9993
2 10115  95.0000 336.0000 0000000   0.0000 246.0000 14.51731151    18
CTC1_L_00333030-01
1 10116U 26459BL  26075.70033565  .00000000  00000+0  00000-0 0  9993
2 10116  95.0000 348.0000 0000000   0.0000 348.0000 14.51731151    15
CTC1_L_00333030-02
1 10117U 23085IG  26075.70033565  .00000000  00000+0  00000-0 0  9996
2 10117  95.0000 348.0000 0000000   0.0000  78.0000 14.51731151    16
CTC1_L_00333030-03
1 10118U 25531RM  26075.70033565  .00000000  00000+0  00000-0 0  9995
2 10118  95.0000 348.0000 0000000   0.0000 168.0000 14.51731151    17
CTC1_L_00333030-04
1 10119U 22059UZ  26075.70033565  .00000000  00000+0  00000-0 0  9998
2 10119  95.0000 348.0000 0000000   0.0000 258.0000 14.51731151    18
